NORAD_CAT_ID,OBJECT_NAME,OBJECT_TYPE,EPOCH,MEAN_MOTION,ECCENTRICITY,INCLINATION,RA_OF_ASC_NODE,ARG_OF_PERICENTER,MEAN_ANOMALY,BSTAR,MEAN_MOTION_DOT,MEAN_MOTION_DDOT,TLE_LINE0,TLE_LINE1,TLE_LINE2,SEMIMAJOR_AXIS,PERIOD,APOGEE,PERIGEE,DECAYED
50814.0,STARLINK-3324,PAYLOAD,2023-10-27 19:16:52,15.08856281,0.0001424,53.2151,87.2538,89.8143,270.3012,0.00040407,6.151e-05,0.0,0 STARLINK-3324,1 50814U 22001M   23300.80338133  .00006151  00000-0  40407-3 0  9991,2 50814  53.2151  87.2538 0001424  89.8143 270.3012 15.08856281101263,6917.831,95.437,540.681,538.711,0.0
50814.0,STARLINK-3324,PAYLOAD,2023-10-28 11:10:44,15.08836035,0.0001955,53.2152,84.2778,86.0706,274.0509,-2.2727e-05,-6.5e-06,0.0,0 STARLINK-3324,1 50814U 22001M   23301.46578933 -.00000650  00000-0 -22727-4 0  9994,2 50814  53.2152  84.2778 0001955  86.0706 274.0509 15.08836035101368,6917.893,95.438,541.11,538.405,0.0
50814.0,STARLINK-3324,PAYLOAD,2023-10-28 14:21:30,15.08833007,0.0001873,53.2155,83.6856,81.1867,278.9337,-1.8954e-05,-5.9e-06,0.0,0 STARLINK-3324,1 50814U 22001M   23301.59827209 -.00000590  00000-0 -18954-4 0  9991,2 50814  53.2155  83.6856 0001873  81.1867 278.9337 15.08833007100114,6917.902,95.438,541.062,538.471,0.0
50814.0,STARLINK-3324,PAYLOAD,2023-10-28 15:56:53,15.08836483,0.0001613,53.2153,83.3881,86.8548,273.2629,7.2305e-05,8.63e-06,0.0,0 STARLINK-3324,1 50814U 22001M   23301.66451158  .00000863  00000-0  72305-4 0  9996,2 50814  53.2153  83.3881 0001613  86.8548 273.2629 15.08836483100121,6917.891,95.438,540.872,538.64,0.0
50814.0,STARLINK-3324,PAYLOAD,2023-10-29 12:36:54,15.08862083,0.0001592,53.2161,79.5218,85.1874,274.93,0.00098037,0.00015358,0.0,0 STARLINK-3324,1 50814U 22001M   23302.52562739  .00015358  00000-0  98037-3 0  9994,2 50814  53.2161  79.5218 0001592  85.1874 274.9300 15.08862083101525,6917.813,95.436,540.779,538.577,0.0
50814.0,STARLINK-3324,PAYLOAD,2023-10-29 14:12:17,15.08865018,0.0001623,53.2159,79.2241,84.0698,276.0479,0.0011404,0.0001792,0.0,0 STARLINK-3324,1 50814U 22001M   23302.59186694  .00017920  00000-0  11404-2 0  9992,2 50814  53.2159  79.2241 0001623  84.0698 276.0479 15.08865018100263,6917.804,95.436,540.792,538.546,0.0
50814.0,STARLINK-3324,PAYLOAD,2023-10-29 15:47:40,15.08868013,0.0001572,53.2164,78.9275,80.9019,279.2151,0.0011726,0.00018437,0.0,0 STARLINK-3324,1 50814U 22001M   23302.65810581  .00018437  00000-0  11726-2 0  9999,2 50814  53.2164  78.9275 0001572  80.9019 279.2151 15.08868013100278,6917.795,95.436,540.747,538.572,0.0
50814.0,STARLINK-3324,PAYLOAD,2023-10-30 12:27:41,15.08838636,0.0001571,53.217,75.0615,71.2622,288.854,4.4173e-05,4.15e-06,0.0,0 STARLINK-3324,1 50814U 22001M   23303.51922958  .00000415  00000-0  44173-4 0  9998,2 50814  53.2170  75.0615 0001571  71.2622 288.8540 15.08838636101674,6917.885,95.438,540.836,538.663,0.0
50814.0,STARLINK-3324,PAYLOAD,2023-10-30 15:38:27,15.08835254,0.0001344,53.2167,74.4667,83.8456,276.2689,6.6698e-05,7.74e-06,0.0,0 STARLINK-3324,1 50814U 22001M   23303.65170912  .00000774  00000-0  66698-4 0  9992,2 50814  53.2167  74.4667 0001344  83.8456 276.2689 15.08835254100422,6917.895,95.438,540.69,538.83,0.0
50814.0,STARLINK-3324,PAYLOAD,2023-10-31 12:18:29,15.08837198,0.0001335,53.217,70.6016,84.6549,275.4595,0.00067841,0.00010525,0.0,0 STARLINK-3324,1 50814U 22001M   23304.51283808  .00010525  00000-0  67841-3 0  9992,2 50814  53.2170  70.6016 0001335  84.6549 275.4595 15.08837198101825,6917.889,95.438,540.677,538.83,0.0
50814.0,STARLINK-3324,PAYLOAD,2023-10-31 13:53:52,15.08836307,0.0001416,53.2172,70.3025,84.837,275.2784,0.00046589,7.134e-05,0.0,0 STARLINK-3324,1 50814U 22001M   23304.57907769  .00007134  00000-0  46589-3 0  9995,2 50814  53.2172  70.3025 0001416  84.8370 275.2784 15.08836307100567,6917.892,95.438,540.736,538.777,0.0
50814.0,STARLINK-3324,PAYLOAD,2023-10-31 15:29:15,15.08843954,0.0001369,53.2168,70.007,84.1583,275.9565,0.00037444,5.677e-05,0.0,0 STARLINK-3324,1 50814U 22001M   23304.64531438  .00005677  00000-0  37444-3 0  9999,2 50814  53.2168  70.0070 0001369  84.1583 275.9565 15.08843954100576,6917.868,95.437,540.68,538.786,0.0
50814.0,STARLINK-3324,PAYLOAD,2023-11-01 12:09:16,15.08846335,0.000126,53.2171,66.1408,97.9391,262.1744,0.00037689,5.716e-05,0.0,0 STARLINK-3324,1 50814U 22001M   23305.50643603  .00005716  00000-0  37689-3 0  9998,2 50814  53.2171  66.1408 0001260  97.9391 262.1744 15.08846335101978,6917.861,95.437,540.598,538.854,0.0
50814.0,STARLINK-3324,PAYLOAD,2023-11-01 15:20:02,15.08852792,0.0001211,53.217,65.547,92.4656,267.6474,0.00053019,8.163e-05,0.0,0 STARLINK-3324,1 50814U 22001M   23305.63891496  .00008163  00000-0  53019-3 0  9991,2 50814  53.2170  65.5470 0001211  92.4656 267.6474 15.08852792100725,6917.841,95.437,540.544,538.869,0.0
50814.0,STARLINK-3324,PAYLOAD,2023-11-01 16:55:25,15.08855897,0.0001222,53.2171,65.2495,90.5077,269.6055,0.00059529,9.203e-05,0.0,0 STARLINK-3324,1 50814U 22001M   23305.70515406  .00009203  00000-0  59529-3 0  9991,2 50814  53.2171  65.2495 0001222  90.5077 269.6055 15.08855897100735,6917.832,95.437,540.542,538.851,0.0
50814.0,STARLINK-3324,PAYLOAD,2023-11-02 12:00:03,15.0883568,0.0001033,53.2175,61.6824,76.902,283.2087,-6.4604e-05,-1.316e-05,0.0,0 STARLINK-3324,1 50814U 22001M   23306.50003543 -.00001316  00000-0 -64604-4 0  9994,2 50814  53.2175  61.6824 0001033  76.9020 283.2087 15.08835680102121,6917.894,95.438,540.473,539.044,0.0
50814.0,STARLINK-3324,PAYLOAD,2023-11-02 13:35:26,15.08841713,0.0001236,53.2169,61.3842,75.7205,284.3925,0.00016672,2.367e-05,0.0,0 STARLINK-3324,1 50814U 22001M   23306.56627524  .00002367  00000-0  16672-3 0  9997,2 50814  53.2169  61.3842 0001236  75.7205 284.3925 15.08841713100864,6917.875,95.437,540.595,538.885,0.0
50814.0,STARLINK-3324,PAYLOAD,2023-11-02 18:21:35,15.08850552,0.0001281,53.2168,60.4918,73.8176,286.2957,0.00052133,8.021e-05,0.0,0 STARLINK-3324,1 50814U 22001M   23306.76499326  .00008021  00000-0  52133-3 0  9991,2 50814  53.2168  60.4918 0001281  73.8176 286.2957 15.08850552102165,6917.848,95.437,540.599,538.827,0.0
50814.0,STARLINK-3324,PAYLOAD,2023-11-03 00:43:08,15.08835716,0.0001143,53.2175,59.2985,83.6857,276.4266,0.00011134,1.484e-05,0.0,0 STARLINK-3324,1 50814U 22001M   23307.02995573  .00001484  00000-0  11134-3 0  9998,2 50814  53.2175  59.2985 0001143  83.6857 276.4266 15.08835716102209,6917.893,95.438,540.549,538.968,0.0
50814.0,STARLINK-3324,PAYLOAD,2023-11-03 13:26:13,15.08843118,0.0001311,53.2173,56.9238,85.0817,275.0325,9.5405e-05,1.231e-05,0.0,0 STARLINK-3324,1 50814U 22001M   23307.55987677  .00001231  00000-0  95405-4 0  9996,2 50814  53.2173  56.9238 0001311  85.0817 275.0325 15.08843118101015,6917.871,95.437,540.643,538.829,0.0
50814.0,STARLINK-3324,PAYLOAD,2023-11-03 15:01:36,15.08847083,0.0001322,53.2173,56.6265,83.8645,276.2497,0.00018906,2.723e-05,0.0,0 STARLINK-3324,1 50814U 22001M   23307.62611562  .00002723  00000-0  18906-3 0  9998,2 50814  53.2173  56.6265 0001322  83.8645 276.2497 15.08847083101028,6917.859,95.437,540.638,538.809,0.0
50814.0,STARLINK-3324,PAYLOAD,2023-11-04 06:55:28,15.08820415,0.0001169,53.2172,53.6497,96.3397,263.7729,-0.000244,-4.167e-05,0.0,0 STARLINK-3324,1 50814U 22001M   23308.28852634 -.00004167  00000-0 -24400-3 0  9990,2 50814  53.2172  53.6497 0001169  96.3397 263.7729 15.08820415102393,6917.94,95.439,540.614,538.997,0.0
50814.0,STARLINK-3324,PAYLOAD,2023-11-04 13:17:01,15.08834435,0.0001439,53.2158,52.4646,90.6688,269.4469,0.00021314,3.105e-05,0.0,0 STARLINK-3324,1 50814U 22001M   23308.55348457  .00003105  00000-0  21314-3 0  9993,2 50814  53.2158  52.4646 0001439  90.6688 269.4469 15.08834435101165,6917.897,95.438,540.758,538.767,0.0
50814.0,STARLINK-3324,PAYLOAD,2023-11-04 14:52:24,15.08842536,0.0001388,53.2168,52.1649,89.6111,270.504,0.00047377,7.261e-05,0.0,0 STARLINK-3324,1 50814U 22001M   23308.61972285  .00007261  00000-0  47377-3 0  9996,2 50814  53.2168  52.1649 0001388  89.6111 270.5040 15.08842536102449,6917.873,95.437,540.698,538.777,0.0
50814.0,STARLINK-3324,PAYLOAD,2023-11-05 13:07:47,15.08872397,0.0001516,53.2163,48.0018,92.9988,267.1178,0.0012069,0.00018989,0.0,0 STARLINK-3324,1 50814U 22001M   23309.54707750  .00018989  00000-0  12069-2 0  9990,2 50814  53.2163  48.0018 0001516  92.9988 267.1178 15.08872397101317,6917.781,95.436,540.695,538.598,0.0
50814.0,STARLINK-3324,PAYLOAD,2023-11-06 00:15:28,15.08880991,0.0001603,53.2174,45.9194,89.5505,270.5671,0.0011954,0.00018809,0.0,0 STARLINK-3324,1 50814U 22001M   23310.01074959  .00018809  00000-0  11954-2 0  9995,2 50814  53.2174  45.9194 0001603  89.5505 270.5671 15.08880991102657,6917.755,95.435,540.729,538.511,0.0
50814.0,STARLINK-3324,PAYLOAD,2023-11-06 11:23:10,15.08872433,0.0001774,53.2175,43.839,87.0777,273.0418,0.0005176,7.966e-05,0.0,0 STARLINK-3324,1 50814U 22001M   23310.47442244  .00007966  00000-0  51760-3 0  9993,2 50814  53.2175  43.8390 0001774  87.0777 273.0418 15.08872433102723,6917.781,95.436,540.873,538.419,0.0
50814.0,STARLINK-3324,PAYLOAD,2023-11-06 12:58:34,15.08828506,0.0001377,53.2169,43.5415,88.4158,271.6992,-0.00073589,-0.00011977,0.0,0 STARLINK-3324,1 50814U 22001M   23310.54067344 -.00011977  00000-0 -73589-3 0  9997,2 50814  53.2169  43.5415 0001377  88.4158 271.6992 15.08828506101461,6917.916,95.438,540.733,538.828,0.0
50814.0,STARLINK-3324,PAYLOAD,2023-11-07 11:14:00,15.0881154,0.0001708,53.2179,39.379,99.8238,260.2947,0.00011277,1.506e-05,0.0,0 STARLINK-3324,1 50814U 22001M   23311.46806173  .00001506  00000-0  11277-3 0  9991,2 50814  53.2179  39.3790 0001708  99.8238 260.2947 15.08811540102874,6917.967,95.439,541.014,538.651,0.0
50814.0,STARLINK-3324,PAYLOAD,2023-11-07 12:49:23,15.08810744,0.0001385,53.2173,39.0809,79.9845,280.1303,0.00026048,3.857e-05,0.0,0 STARLINK-3324,1 50814U 22001M   23311.53430466  .00003857  00000-0  26048-3 0  9990,2 50814  53.2173  39.0809 0001385  79.9845 280.1303 15.08810744101613,6917.97,95.439,540.793,538.877,0.0
